{
  "type": "FeatureCollection",
  "features": [
    {
      "type": "Feature",
      "properties": { "name": "India" },
      "geometry": {
        "type": "Polygon",
        "coordinates": [[
          [68.186, 35.513], [71.032, 34.269], [73.883, 34.653], [74.415, 34.088],
          [76.173, 33.441], [77.555, 33.791], [78.912, 34.321], [79.208, 34.593],
          [80.217, 32.994], [81.693, 33.504], [82.012, 33.279], [83.303, 32.583],
          [84.023, 31.693], [84.023, 31.693], [85.138, 31.515], [86.419, 31.065],
          [87.227, 31.303], [88.085, 31.145], [88.706, 30.678], [88.845, 29.978],
          [88.845, 29.978], [88.845, 29.978], [88.174, 28.960], [88.043, 28.050],
          [88.120, 27.360], [88.915, 27.102], [89.021, 26.906], [88.845, 26.537],
          [88.542, 26.454], [88.085, 26.537], [87.680, 26.907], [86.979, 26.992],
          [86.498, 27.446], [86.002, 27.446], [85.250, 26.725], [84.676, 26.306],
          [83.884, 25.768], [83.337, 25.229], [82.353, 25.147], [82.191, 24.655],
          [82.191, 24.655], [82.353, 24.423], [81.693, 23.631], [80.791, 23.469],
          [80.324, 22.879], [80.030, 22.705], [79.972, 21.941], [79.857, 21.537],
          [79.483, 21.447], [79.307, 20.578], [78.738, 20.225], [77.727, 20.178],
          [77.207, 20.225], [76.560, 20.151], [76.013, 19.977], [75.746, 19.803],
          [75.305, 19.478], [74.858, 19.159], [74.358, 18.882], [73.883, 18.970],
          [73.705, 18.795], [73.675, 17.671], [73.883, 17.671], [74.137, 17.018],
          [74.533, 15.970], [74.415, 15.349], [73.534, 15.233], [72.823, 15.414],
          [72.823, 15.414], [72.823, 15.414], [72.242, 11.776], [71.178, 11.155],
          [70.470, 10.279], [70.168, 9.951], [69.514, 9.951], [69.156, 10.279],
          [68.231, 10.542], [68.185, 10.671], [68.232, 11.776], [68.446, 13.027],
          [68.447, 15.137], [69.002, 15.794], [69.002, 17.356], [68.856, 18.244],
          [68.445, 19.437], [68.185, 20.418], [68.232, 21.537], [68.231, 23.691],
          [68.185, 26.729], [68.185, 28.071], [68.185, 28.960], [68.186, 35.513]
        ]]
      }
    }
  ]
}
